[{"OBJECT_NAME":"STARLINK-35050","OBJECT_ID":"2025-194G","EPOCH":"2026-02-03T03:27:19.967040","MEAN_MOTION":15.05658998,"ECCENTRICITY":0.00026571,"INCLINATION":97.6011,"RA_OF_ASC_NODE":250.4068,"ARG_OF_PERICENTER":73.4225,"MEAN_ANOMALY":286.7293,"EPHEMERIS_TYPE":0,"CLASSIFICATION_TYPE":"U","NORAD_CAT_ID":65440,"ELEMENT_SET_NO":999,"REV_AT_EPOCH":2445,"BSTAR":3.5333803e-5,"MEAN_MOTION_DOT":4.49e-6,"MEAN_MOTION_DDOT":0},{"OBJECT_NAME":"STARLINK-35065","OBJECT_ID":"2025-194H","EPOCH":"2026-02-03T04:35:07.339488","MEAN_MOTION":15.05658841,"ECCENTRICITY":0.00024477,"INCLINATION":97.6026,"RA_OF_ASC_NODE":250.345,"ARG_OF_PERICENTER":86.1753,"MEAN_ANOMALY":273.9753,"EPHEMERIS_TYPE":0,"CLASSIFICATION_TYPE":"U","NORAD_CAT_ID":65441,"ELEMENT_SET_NO":999,"REV_AT_EPOCH":2445,"BSTAR":0.00048266748,"MEAN_MOTION_DOT":6.912e-5,"MEAN_MOTION_DDOT":0},{"OBJECT_NAME":"STARLINK-34679","OBJECT_ID":"2025-194J","EPOCH":"2026-02-03T03:39:17.478432","MEAN_MOTION":15.05652484,"ECCENTRICITY":0.00018134,"INCLINATION":97.6014,"RA_OF_ASC_NODE":250.3971,"ARG_OF_PERICENTER":85.8142,"MEAN_ANOMALY":274.3292,"EPHEMERIS_TYPE":0,"CLASSIFICATION_TYPE":"U","NORAD_CAT_ID":65442,"ELEMENT_SET_NO":999,"REV_AT_EPOCH":2445,"BSTAR":0.0001862917,"MEAN_MOTION_DOT":2.628e-5,"MEAN_MOTION_DDOT":0},{"OBJECT_NAME":"STARLINK-34678","OBJECT_ID":"2025-194K","EPOCH":"2026-02-03T04:27:07.981920","MEAN_MOTION":15.05658185,"ECCENTRICITY":0.00026557,"INCLINATION":97.6023,"RA_OF_ASC_NODE":250.3523,"ARG_OF_PERICENTER":92.275,"MEAN_ANOMALY":267.8781,"EPHEMERIS_TYPE":0,"CLASSIFICATION_TYPE":"U","NORAD_CAT_ID":65443,"ELEMENT_SET_NO":999,"REV_AT_EPOCH":2445,"BSTAR":0.00035053827,"MEAN_MOTION_DOT":5.002e-5,"MEAN_MOTION_DDOT":0},{"OBJECT_NAME":"STARLINK-35049","OBJECT_ID":"2025-194L","EPOCH":"2026-02-03T04:07:14.153376","MEAN_MOTION":15.05656488,"ECCENTRICITY":0.00022811,"INCLINATION":97.6015,"RA_OF_ASC_NODE":250.37,"ARG_OF_PERICENTER":75.1106,"MEAN_ANOMALY":285.0374,"EPHEMERIS_TYPE":0,"CLASSIFICATION_TYPE":"U","NORAD_CAT_ID":65444,"ELEMENT_SET_NO":999,"REV_AT_EPOCH":2445,"BSTAR":0.0010898547,"MEAN_MOTION_DOT":0.00015703,"MEAN_MOTION_DDOT":0},{"OBJECT_NAME":"STARLINK-35029","OBJECT_ID":"2025-194M","EPOCH":"2026-02-03T03:59:13.457472","MEAN_MOTION":15.05653354,"ECCENTRICITY":0.00017184,"INCLINATION":97.6016,"RA_OF_ASC_NODE":250.3759,"ARG_OF_PERICENTER":93.5986,"MEAN_ANOMALY":266.5437,"EPHEMERIS_TYPE":0,"CLASSIFICATION_TYPE":"U","NORAD_CAT_ID":65445,"ELEMENT_SET_NO":999,"REV_AT_EPOCH":2445,"BSTAR":0.00024024291,"MEAN_MOTION_DOT":3.408e-5,"MEAN_MOTION_DDOT":0},{"OBJECT_NAME":"STARLINK-34991","OBJECT_ID":"2025-194N","EPOCH":"2026-02-03T03:47:15.843264","MEAN_MOTION":15.05654007,"ECCENTRICITY":0.00019252,"INCLINATION":97.6015,"RA_OF_ASC_NODE":250.3891,"ARG_OF_PERICENTER":95.2018,"MEAN_ANOMALY":264.9428,"EPHEMERIS_TYPE":0,"CLASSIFICATION_TYPE":"U","NORAD_CAT_ID":65446,"ELEMENT_SET_NO":999,"REV_AT_EPOCH":2445,"BSTAR":0.00023738365,"MEAN_MOTION_DOT":3.366e-5,"MEAN_MOTION_DDOT":0},{"OBJECT_NAME":"STARLINK-34920","OBJECT_ID":"2025-194P","EPOCH":"2026-02-03T03:31:19.096320","MEAN_MOTION":15.05653868,"ECCENTRICITY":0.00020551,"INCLINATION":97.6013,"RA_OF_ASC_NODE":250.4033,"ARG_OF_PERICENTER":81.9386,"MEAN_ANOMALY":278.2073,"EPHEMERIS_TYPE":0,"CLASSIFICATION_TYPE":"U","NORAD_CAT_ID":65447,"ELEMENT_SET_NO":999,"REV_AT_EPOCH":2445,"BSTAR":0.00026476237,"MEAN_MOTION_DOT":3.762e-5,"MEAN_MOTION_DDOT":0},{"OBJECT_NAME":"STARLINK-35030","OBJECT_ID":"2025-194Q","EPOCH":"2026-02-03T04:15:10.362528","MEAN_MOTION":15.05656092,"ECCENTRICITY":0.00025292,"INCLINATION":97.602,"RA_OF_ASC_NODE":250.3629,"ARG_OF_PERICENTER":77.9641,"MEAN_ANOMALY":282.1869,"EPHEMERIS_TYPE":0,"CLASSIFICATION_TYPE":"U","NORAD_CAT_ID":65448,"ELEMENT_SET_NO":999,"REV_AT_EPOCH":2445,"BSTAR":0.00026609199,"MEAN_MOTION_DOT":3.781e-5,"MEAN_MOTION_DDOT":0},{"OBJECT_NAME":"STARLINK-35009","OBJECT_ID":"2025-194R","EPOCH":"2026-02-03T06:30:45.551520","MEAN_MOTION":15.05649385,"ECCENTRICITY":0.00019611,"INCLINATION":97.6027,"RA_OF_ASC_NODE":250.5463,"ARG_OF_PERICENTER":84.1814,"MEAN_ANOMALY":275.9636,"EPHEMERIS_TYPE":0,"CLASSIFICATION_TYPE":"U","NORAD_CAT_ID":65449,"ELEMENT_SET_NO":999,"REV_AT_EPOCH":2447,"BSTAR":0.00010765571,"MEAN_MOTION_DOT":1.493e-5,"MEAN_MOTION_DDOT":0},{"OBJECT_NAME":"STARLINK-34970","OBJECT_ID":"2025-194S","EPOCH":"2026-02-03T06:22:46.994880","MEAN_MOTION":15.05676037,"ECCENTRICITY":0.00020617,"INCLINATION":97.6029,"RA_OF_ASC_NODE":250.4007,"ARG_OF_PERICENTER":68.9182,"MEAN_ANOMALY":291.2265,"EPHEMERIS_TYPE":0,"CLASSIFICATION_TYPE":"U","NORAD_CAT_ID":65450,"ELEMENT_SET_NO":999,"REV_AT_EPOCH":2446,"BSTAR":0.0013465289,"MEAN_MOTION_DOT":0.00019435,"MEAN_MOTION_DDOT":0},{"OBJECT_NAME":"STARLINK-35039","OBJECT_ID":"2025-194T","EPOCH":"2026-02-03T04:03:12.652416","MEAN_MOTION":15.05656939,"ECCENTRICITY":0.0002354,"INCLINATION":97.6017,"RA_OF_ASC_NODE":250.3743,"ARG_OF_PERICENTER":84.1714,"MEAN_ANOMALY":275.9781,"EPHEMERIS_TYPE":0,"CLASSIFICATION_TYPE":"U","NORAD_CAT_ID":65451,"ELEMENT_SET_NO":999,"REV_AT_EPOCH":2445,"BSTAR":0.00026935981,"MEAN_MOTION_DOT":3.829e-5,"MEAN_MOTION_DDOT":0},{"OBJECT_NAME":"STARLINK-35084","OBJECT_ID":"2025-194U","EPOCH":"2026-02-03T04:23:08.256480","MEAN_MOTION":15.05669529,"ECCENTRICITY":0.00023473,"INCLINATION":97.6028,"RA_OF_ASC_NODE":250.3566,"ARG_OF_PERICENTER":72.5814,"MEAN_ANOMALY":287.5669,"EPHEMERIS_TYPE":0,"CLASSIFICATION_TYPE":"U","NORAD_CAT_ID":65452,"ELEMENT_SET_NO":999,"REV_AT_EPOCH":2445,"BSTAR":0.00056117041,"MEAN_MOTION_DOT":8.05e-5,"MEAN_MOTION_DDOT":0},{"OBJECT_NAME":"STARLINK-34988","OBJECT_ID":"2025-194V","EPOCH":"2026-02-03T03:42:17.913600","MEAN_MOTION":15.01269751,"ECCENTRICITY":0.00015082,"INCLINATION":97.6033,"RA_OF_ASC_NODE":251.6837,"ARG_OF_PERICENTER":70.5789,"MEAN_ANOMALY":289.5598,"EPHEMERIS_TYPE":0,"CLASSIFICATION_TYPE":"U","NORAD_CAT_ID":65453,"ELEMENT_SET_NO":999,"REV_AT_EPOCH":2453,"BSTAR":0.00034944753,"MEAN_MOTION_DOT":4.434e-5,"MEAN_MOTION_DDOT":0},{"OBJECT_NAME":"STARLINK-35059","OBJECT_ID":"2025-194W","EPOCH":"2026-02-03T03:39:57.596544","MEAN_MOTION":15.00455598,"ECCENTRICITY":0.00024942,"INCLINATION":97.6034,"RA_OF_ASC_NODE":251.2108,"ARG_OF_PERICENTER":1.0318,"MEAN_ANOMALY":359.0911,"EPHEMERIS_TYPE":0,"CLASSIFICATION_TYPE":"U","NORAD_CAT_ID":65454,"ELEMENT_SET_NO":999,"REV_AT_EPOCH":2450,"BSTAR":0.00020466326,"MEAN_MOTION_DOT":2.517e-5,"MEAN_MOTION_DDOT":0},{"OBJECT_NAME":"STARLINK-34728","OBJECT_ID":"2025-194X","EPOCH":"2026-02-03T04:39:05.536512","MEAN_MOTION":15.05660071,"ECCENTRICITY":0.00021392,"INCLINATION":97.6026,"RA_OF_ASC_NODE":250.3419,"ARG_OF_PERICENTER":78.3494,"MEAN_ANOMALY":281.7972,"EPHEMERIS_TYPE":0,"CLASSIFICATION_TYPE":"U","NORAD_CAT_ID":65455,"ELEMENT_SET_NO":999,"REV_AT_EPOCH":2445,"BSTAR":0.00029475569,"MEAN_MOTION_DOT":4.196e-5,"MEAN_MOTION_DDOT":0},{"OBJECT_NAME":"STARLINK-35005","OBJECT_ID":"2025-194Y","EPOCH":"2026-02-03T03:23:20.551776","MEAN_MOTION":15.05657218,"ECCENTRICITY":0.00020165,"INCLINATION":97.6014,"RA_OF_ASC_NODE":250.4102,"ARG_OF_PERICENTER":55.9336,"MEAN_ANOMALY":304.2082,"EPHEMERIS_TYPE":0,"CLASSIFICATION_TYPE":"U","NORAD_CAT_ID":65456,"ELEMENT_SET_NO":999,"REV_AT_EPOCH":2445,"BSTAR":0.00031361201,"MEAN_MOTION_DOT":4.468e-5,"MEAN_MOTION_DDOT":0},{"OBJECT_NAME":"STARLINK-35076","OBJECT_ID":"2025-194Z","EPOCH":"2026-02-03T04:31:07.728096","MEAN_MOTION":15.05671633,"ECCENTRICITY":0.00020156,"INCLINATION":97.6027,"RA_OF_ASC_NODE":250.3486,"ARG_OF_PERICENTER":83.9826,"MEAN_ANOMALY":276.163,"EPHEMERIS_TYPE":0,"CLASSIFICATION_TYPE":"U","NORAD_CAT_ID":65457,"ELEMENT_SET_NO":999,"REV_AT_EPOCH":2445,"BSTAR":0.00030821574,"MEAN_MOTION_DOT":4.392e-5,"MEAN_MOTION_DDOT":0},{"OBJECT_NAME":"STARLINK-34784","OBJECT_ID":"2025-195A","EPOCH":"2026-02-03T05:58:15.786912","MEAN_MOTION":15.3022142,"ECCENTRICITY":0.00013834,"INCLINATION":53.1614,"RA_OF_ASC_NODE":57.9464,"ARG_OF_PERICENTER":95.937,"MEAN_ANOMALY":264.1789,"EPHEMERIS_TYPE":0,"CLASSIFICATION_TYPE":"U","NORAD_CAT_ID":65458,"ELEMENT_SET_NO":999,"REV_AT_EPOCH":2472,"BSTAR":0.0012289495,"MEAN_MOTION_DOT":0.00036241,"MEAN_MOTION_DDOT":0},{"OBJECT_NAME":"STARLINK-34867","OBJECT_ID":"2025-195B","EPOCH":"2026-02-03T06:27:07.946208","MEAN_MOTION":15.30191129,"ECCENTRICITY":0.00012502,"INCLINATION":53.1593,"RA_OF_ASC_NODE":58.07,"ARG_OF_PERICENTER":102.1535,"MEAN_ANOMALY":257.9606,"EPHEMERIS_TYPE":0,"CLASSIFICATION_TYPE":"U","NORAD_CAT_ID":65459,"ELEMENT_SET_NO":999,"REV_AT_EPOCH":2472,"BSTAR":0.00042866867,"MEAN_MOTION_DOT":0.00012354,"MEAN_MOTION_DDOT":0},{"OBJECT_NAME":"STARLINK-34850","OBJECT_ID":"2025-195C","EPOCH":"2026-02-03T05:28:02.055648","MEAN_MOTION":15.30209329,"ECCENTRICITY":0.00016891,"INCLINATION":53.1577,"RA_OF_ASC_NODE":58.521,"ARG_OF_PERICENTER":79.6233,"MEAN_ANOMALY":280.4958,"EPHEMERIS_TYPE":0,"CLASSIFICATION_TYPE":"U","NORAD_CAT_ID":65460,"ELEMENT_SET_NO":999,"REV_AT_EPOCH":2471,"BSTAR":0.0011060968,"MEAN_MOTION_DOT":0.00032554,"MEAN_MOTION_DDOT":0},{"OBJECT_NAME":"STARLINK-35159","OBJECT_ID":"2025-195D","EPOCH":"2026-02-03T05:20:25.804896","MEAN_MOTION":15.30191863,"ECCENTRICITY":0.00014988,"INCLINATION":53.158,"RA_OF_ASC_NODE":58.4919,"ARG_OF_PERICENTER":102.7501,"MEAN_ANOMALY":257.3667,"EPHEMERIS_TYPE":0,"CLASSIFICATION_TYPE":"U","NORAD_CAT_ID":65461,"ELEMENT_SET_NO":999,"REV_AT_EPOCH":2471,"BSTAR":0.00039131946,"MEAN_MOTION_DOT":0.00011245,"MEAN_MOTION_DDOT":0},{"OBJECT_NAME":"STARLINK-35180","OBJECT_ID":"2025-195E","EPOCH":"2026-02-03T05:06:45.372960","MEAN_MOTION":15.30218957,"ECCENTRICITY":0.00013303,"INCLINATION":53.1589,"RA_OF_ASC_NODE":58.4309,"ARG_OF_PERICENTER":100.9896,"MEAN_ANOMALY":259.1255,"EPHEMERIS_TYPE":0,"CLASSIFICATION_TYPE":"U","NORAD_CAT_ID":65462,"ELEMENT_SET_NO":999,"REV_AT_EPOCH":2471,"BSTAR":0.0010428235,"MEAN_MOTION_DOT":0.00030672,"MEAN_MOTION_DDOT":0}]
